[{"OBJECT_NAME":"STARLINK-1357","OBJECT_ID":"2020-025AL","EPOCH":"2026-03-09T21:47:01.769568","MEAN_MOTION":15.55581291,"ECCENTRICITY":0.00038057,"INCLINATION":53.0543,"RA_OF_ASC_NODE":36.9603,"ARG_OF_PERICENTER":97.6064,"MEAN_ANOMALY":262.5379,"EPHEMERIS_TYPE":0,"CLASSIFICATION_TYPE":"U","NORAD_CAT_ID":45565,"ELEMENT_SET_NO":999,"REV_AT_EPOCH":32609,"BSTAR":0.0018339084,"MEAN_MOTION_DOT":0.00129519,"MEAN_MOTION_DDOT":0},{"OBJECT_NAME":"AIST-2T 1","OBJECT_ID":"2025-313F","EPOCH":"2026-03-09T22:19:59.484576","MEAN_MOTION":15.60511004,"ECCENTRICITY":0.00116581,"INCLINATION":97.0916,"RA_OF_ASC_NODE":146.6086,"ARG_OF_PERICENTER":239.8549,"MEAN_ANOMALY":120.1554,"EPHEMERIS_TYPE":0,"CLASSIFICATION_TYPE":"U","NORAD_CAT_ID":67253,"ELEMENT_SET_NO":999,"REV_AT_EPOCH":1114,"BSTAR":0.00050199442,"MEAN_MOTION_DOT":0.00041507,"MEAN_MOTION_DDOT":0}]
